ORBCOMM FM24            
1 25478U 98053D   25173.16929764  .00000545  00000+0  22472-3 0  9996
2 25478  45.0076 245.4755 0004400 246.6464 113.3922 14.38111821398441
ORBCOMM FM26            
1 25480U 98053F   25173.22497061  .00000400  00000+0  18044-3 0  9996
2 25480  45.0059 239.9765 0007971 275.9197  84.0742 14.37144807398474
ORBCOMM FM28            
1 25482U 98053H   25173.02641615  .00000414  00000+0  18109-3 0  9999
2 25482  45.0035 182.1168 0006552 306.4896  53.5348 14.38299114399226
ORBCOMM FM30            
1 25980U 99065A   25173.14492898  .00000499  00000+0  21302-3 0  9998
2 25980  45.0321  66.2474 0007323  29.0223 331.1032 14.37309111335692
ORBCOMM FM31            
1 25981U 99065B   25173.11841633  .00000576  00000+0  23896-3 0  9997
2 25981  45.0235  59.8608 0004460  49.1029 311.0205 14.37248181335687
ORBCOMM FM32            
1 25982U 99065C   25172.82040501  .00000516  00000+0  22321-3 0  9996
2 25982  45.0161  77.8810 0006771  43.2043 316.9335 14.36291963335266
